COSMOS 2433 (720)       
1 32275U 07052A   23182.27477480 -.00000041  00000+0  00000+0 0  9992
2 32275  66.0383 352.0944 0001456 184.6691 175.3466  2.13104069122042
COSMOS 2432 (719)       
1 32276U 07052B   23181.89971948 -.00000040  00000+0  00000+0 0  9997
2 32276  66.0526 352.2143 0008367 339.0933  40.4594  2.13103289122034
COSMOS 2434 (721)       
1 32393U 07065A   23183.48288788  .00000099  00000+0  00000+0 0  9994
2 32393  64.3384 228.4781 0000551 135.7583 322.0269  2.13103123120772
COSMOS 2436 (723)       
1 32395U 07065C   23182.70872764  .00000101  00000+0  00000+0 0  9997
2 32395  64.3471 228.5654 0015251 352.9134   6.5368  2.13102953120683
COSMOS 2456 (730)       
1 36111U 09070A   23183.39285588 -.00000004  00000+0  00000+0 0  9996
2 36111  64.4682 108.0034 0004635 313.9154 234.9124  2.13099166105439
COSMOS 2457 (733)       
1 36112U 09070B   23183.21415757 -.00000005  00000+0  00000+0 0  9992
2 36112  64.4519 107.8763 0003665 170.4236  11.5996  2.13101324105430
COSMOS 2460 (732)       
1 36402U 10007C   23183.44566817 -.00000045  00000+0  00000+0 0  9999
2 36402  65.9020 350.7817 0002389  92.6986 254.6004  2.13106250103782
COSMOS 2476 (744)       
1 37867U 11064A   23183.36418192 -.00000002  00000+0  00000+0 0  9995
2 37867  64.7495 109.5072 0022430 238.7784 196.8303  2.13101685 90783
COSMOS 2477 (745)       
1 37868U 11064B   23182.33610896 -.00000004  00000+0  00000+0 0  9999
2 37868  64.7565 109.6110 0019727 240.1298 304.6844  2.13101605 90712
COSMOS 2475 (743)       
1 37869U 11064C   23182.38587910 -.00000004  00000+0  00000+0 0  9995
2 37869  64.7638 109.6209 0024469 255.9173 285.4668  2.13101993 90729
COSMOS 2485 (747)       
1 39155U 13019A   23182.73824434 -.00000003  00000+0  00000+0 0  9990
2 39155  64.9102 110.0383 0022790 234.7647 125.0150  2.13101869 79232
COSMOS 2492 (754)       
1 39620U 14012A   23182.22454396 -.00000042  00000+0  00000+0 0  9994
2 39620  65.7864 350.4502 0011164 330.5199  29.4319  2.13103113 72181
COSMOS 2500 (755)       
1 40001U 14032A   23182.87795552 -.00000044  00000+0  00000+0 0  9996
2 40001  65.7247 350.2608 0006187 182.1597 177.8503  2.13105949 70414
COSMOS 2501 (702K)      
1 40315U 14075A   23183.12729528  .00000100  00000+0  00000+0 0  9992
2 40315  63.6423 227.9006 0020047 210.8702 149.1067  2.13101458 66812
COSMOS 2514 (751)       
1 41330U 16008A   23182.63895900 -.00000044  00000+0  00000+0 0  9999
2 41330  65.5223 349.8663 0009489 198.9319 161.0458  2.13102600 57579
COSMOS 2516 (753)       
1 41554U 16032A   23182.28630554  .00000101  00000+0  00000+0 0  9990
2 41554  63.8686 228.3124 0015413 214.4532 145.5410  2.13106489 55177
COSMOS 2522 (752)       
1 42939U 17055A   23182.48121014  .00000101  00000+0  00000+0 0  9992
2 42939  64.1027 228.8120 0009811 241.3059 118.6904  2.13101940 44924
COSMOS 2527 (756)       
1 43508U 18053A   23183.37807855 -.00000001  00000+0  00000+0 0  9997
2 43508  65.0720 110.0960 0008339 237.3748 122.5392  2.13102350 39245
COSMOS 2529 (757)       
1 43687U 18086A   23182.53918605  .00000100  00000+0  00000+0 0  9993
2 43687  64.3179 229.2281 0011349 260.7752  99.1916  2.13102127 36231
COSMOS 2534 (758)       
1 44299U 19030A   23182.37756214  .00000101  00000+0  00000+0 0  9992
2 44299  64.3903 229.1542 0013391 280.2675  90.0209  2.13102114 31882
COSMOS 2544 (759)       
1 44850U 19088A   23182.38321789 -.00000004  00000+0  00000+0 0  9997
2 44850  65.0577 109.9736 0013394 260.7294  99.1117  2.13102147 27646
COSMOS 2545 (760)       
1 45358U 20018A   23183.51860099 -.00000048  00000+0  00000+0 0  9992
2 45358  64.8622 350.1336 0007235 237.1436 122.7972  2.13102542 25635
COSMOS 2547 (705K)      
1 46805U 20075A   23182.30036859  .00000101  00000+0  00000+0 0  9997
2 46805  64.6174 228.6933 0008540 242.7371 117.2705  2.13103124 20854
COSMOS 2557 (706K)      
1 52984U 22075A   23181.99300893 -.00000043  00000+0  00000+0 0  9996
2 52984  64.7766 352.3528 0010420 282.6227  77.2789  2.13102100  7636
COSMOS 2559 (707K)      
1 54031U 22130A   23182.87327185 -.00000046  00000+0  00000+0 0  9997
2 54031  64.7476 352.4521 0005379 210.1748 149.8099  2.13101296  5648
COSMOS 2564 (761)       
1 54377U 22161A   23183.06700894  .00000101  00000+0  00000+0 0  9999
2 54377  64.7580 228.7090 0010980 224.9415 135.0653  2.13102159  4596
